CCSDS_OMM_VERS = 2.0
CREATION_DATE  = 
ORIGINATOR     = 

OBJECT_NAME    = COSMOS 1743
OBJECT_ID      = 1986-034A
CENTER_NAME    = EARTH
REF_FRAME      = TEME
TIME_SYSTEM    = UTC
MEAN_ELEMENT_THEORY = SGP/SGP4

EPOCH          = 2025-11-04T17:09:14.114880
MEAN_MOTION    = 15.49515973
ECCENTRICITY   = .00084809
INCLINATION    = 82.5391
RA_OF_ASC_NODE = 204.0020
ARG_OF_PERICENTER = 42.0021
MEAN_ANOMALY   = 318.1879

EPHEMERIS_TYPE = 0
CLASSIFICATION_TYPE = U
NORAD_CAT_ID   = 16719
ELEMENT_SET_NO = 999
REV_AT_EPOCH   = 16084
BSTAR          = .51553155E-3
MEAN_MOTION_DOT = .28528E-3
MEAN_MOTION_DDOT = 0

CCSDS_OMM_VERS = 2.0
CREATION_DATE  = 
ORIGINATOR     = 

OBJECT_NAME    = SL-14 R/B
OBJECT_ID      = 1986-046B
CENTER_NAME    = EARTH
REF_FRAME      = TEME
TIME_SYSTEM    = UTC
MEAN_ELEMENT_THEORY = SGP/SGP4

EPOCH          = 2025-11-04T15:43:56.188416
MEAN_MOTION    = 14.85426638
ECCENTRICITY   = .0021657
INCLINATION    = 82.4841
RA_OF_ASC_NODE = 198.2755
ARG_OF_PERICENTER = 282.5033
MEAN_ANOMALY   = 77.3760

EPHEMERIS_TYPE = 0
CLASSIFICATION_TYPE = U
NORAD_CAT_ID   = 16792
ELEMENT_SET_NO = 999
REV_AT_EPOCH   = 10784
BSTAR          = .64128E-4
MEAN_MOTION_DOT = .578E-5
MEAN_MOTION_DDOT = 0

CCSDS_OMM_VERS = 2.0
CREATION_DATE  = 
ORIGINATOR     = 

OBJECT_NAME    = SL-14 R/B
OBJECT_ID      = 1986-055B
CENTER_NAME    = EARTH
REF_FRAME      = TEME
TIME_SYSTEM    = UTC
MEAN_ELEMENT_THEORY = SGP/SGP4

EPOCH          = 2025-11-04T18:48:04.072608
MEAN_MOTION    = 14.85465011
ECCENTRICITY   = .00198585
INCLINATION    = 82.5207
RA_OF_ASC_NODE = 244.0329
ARG_OF_PERICENTER = 29.7426
MEAN_ANOMALY   = 357.9827

EPHEMERIS_TYPE = 0
CLASSIFICATION_TYPE = U
NORAD_CAT_ID   = 16882
ELEMENT_SET_NO = 999
REV_AT_EPOCH   = 10082
BSTAR          = .78004469E-4
MEAN_MOTION_DOT = .699E-5
MEAN_MOTION_DDOT = 0

CCSDS_OMM_VERS = 2.0
CREATION_DATE  = 
ORIGINATOR     = 

OBJECT_NAME    = AJISAI (EGS)
OBJECT_ID      = 1986-061A
CENTER_NAME    = EARTH
REF_FRAME      = TEME
TIME_SYSTEM    = UTC
MEAN_ELEMENT_THEORY = SGP/SGP4

EPOCH          = 2025-11-04T22:35:38.499648
MEAN_MOTION    = 12.44514148
ECCENTRICITY   = .00111514
INCLINATION    = 50.0067
RA_OF_ASC_NODE = 116.9441
ARG_OF_PERICENTER = 330.5697
MEAN_ANOMALY   = 201.8259

EPHEMERIS_TYPE = 0
CLASSIFICATION_TYPE = U
NORAD_CAT_ID   = 16908
ELEMENT_SET_NO = 999
REV_AT_EPOCH   = 45246
BSTAR          = .44336196E-4
MEAN_MOTION_DOT = -.91E-6
MEAN_MOTION_DDOT = 0

CCSDS_OMM_VERS = 2.0
CREATION_DATE  = 
ORIGINATOR     = 

OBJECT_NAME    = COSMOS 1812
OBJECT_ID      = 1987-003A
CENTER_NAME    = EARTH
REF_FRAME      = TEME
TIME_SYSTEM    = UTC
MEAN_ELEMENT_THEORY = SGP/SGP4

EPOCH          = 2025-11-04T12:34:28.765056
MEAN_MOTION    = 15.67937541
ECCENTRICITY   = .0003931
INCLINATION    = 82.4894
RA_OF_ASC_NODE = 333.1408
ARG_OF_PERICENTER = 161.7339
MEAN_ANOMALY   = 198.4064

EPHEMERIS_TYPE = 0
CLASSIFICATION_TYPE = U
NORAD_CAT_ID   = 17295
ELEMENT_SET_NO = 999
REV_AT_EPOCH   = 12465
BSTAR          = .5309E-3
MEAN_MOTION_DOT = .5889E-3
MEAN_MOTION_DDOT = 0

CCSDS_OMM_VERS = 2.0
CREATION_DATE  = 
ORIGINATOR     = 

OBJECT_NAME    = SL-14 R/B
OBJECT_ID      = 1987-024B
CENTER_NAME    = EARTH
REF_FRAME      = TEME
TIME_SYSTEM    = UTC
MEAN_ELEMENT_THEORY = SGP/SGP4

EPOCH          = 2025-11-04T17:37:22.611936
MEAN_MOTION    = 14.85965244
ECCENTRICITY   = .00172897
INCLINATION    = 82.5305
RA_OF_ASC_NODE = 210.1499
ARG_OF_PERICENTER = 318.7349
MEAN_ANOMALY   = 41.2559

EPHEMERIS_TYPE = 0
CLASSIFICATION_TYPE = U
NORAD_CAT_ID   = 17567
ELEMENT_SET_NO = 999
REV_AT_EPOCH   = 6957
BSTAR          = .67643501E-4
MEAN_MOTION_DOT = .616E-5
MEAN_MOTION_DDOT = 0

CCSDS_OMM_VERS = 2.0
CREATION_DATE  = 
ORIGINATOR     = 

OBJECT_NAME    = COSMOS 1833
OBJECT_ID      = 1987-027A
CENTER_NAME    = EARTH
REF_FRAME      = TEME
TIME_SYSTEM    = UTC
MEAN_ELEMENT_THEORY = SGP/SGP4

EPOCH          = 2025-11-04T16:52:09.892992
MEAN_MOTION    = 14.13022967
ECCENTRICITY   = .00208079
INCLINATION    = 70.9157
RA_OF_ASC_NODE = 228.7345
ARG_OF_PERICENTER = 25.5697
MEAN_ANOMALY   = 334.6448

EPHEMERIS_TYPE = 0
CLASSIFICATION_TYPE = U
NORAD_CAT_ID   = 17589
ELEMENT_SET_NO = 999
REV_AT_EPOCH   = 99265
BSTAR          = -.13017559E-3
MEAN_MOTION_DOT = -.291E-5
MEAN_MOTION_DDOT = 0

CCSDS_OMM_VERS = 2.0
CREATION_DATE  = 
ORIGINATOR     = 

OBJECT_NAME    = SL-16 R/B
OBJECT_ID      = 1987-027B
CENTER_NAME    = EARTH
REF_FRAME      = TEME
TIME_SYSTEM    = UTC
MEAN_ELEMENT_THEORY = SGP/SGP4

EPOCH          = 2025-11-04T21:33:20.019168
MEAN_MOTION    = 14.17143941
ECCENTRICITY   = .00068623
INCLINATION    = 71.0015
RA_OF_ASC_NODE = 179.4564
ARG_OF_PERICENTER = 299.3597
MEAN_ANOMALY   = 60.6841

EPHEMERIS_TYPE = 0
CLASSIFICATION_TYPE = U
NORAD_CAT_ID   = 17590
ELEMENT_SET_NO = 999
REV_AT_EPOCH   = 99770
BSTAR          = .16378423E-3
MEAN_MOTION_DOT = .282E-5
MEAN_MOTION_DDOT = 0

CCSDS_OMM_VERS = 2.0
CREATION_DATE  = 
ORIGINATOR     = 

OBJECT_NAME    = SL-14 R/B
OBJECT_ID      = 1987-038B
CENTER_NAME    = EARTH
REF_FRAME      = TEME
TIME_SYSTEM    = UTC
MEAN_ELEMENT_THEORY = SGP/SGP4

EPOCH          = 2025-11-04T17:34:41.517408
MEAN_MOTION    = 14.85200370
ECCENTRICITY   = .0018487
INCLINATION    = 82.5028
RA_OF_ASC_NODE = 54.4898
ARG_OF_PERICENTER = 214.0034
MEAN_ANOMALY   = 145.9999

EPHEMERIS_TYPE = 0
CLASSIFICATION_TYPE = U
NORAD_CAT_ID   = 17912
ELEMENT_SET_NO = 999
REV_AT_EPOCH   = 6068
BSTAR          = .76179685E-4
MEAN_MOTION_DOT = .678E-5
MEAN_MOTION_DDOT = 0

CCSDS_OMM_VERS = 2.0
CREATION_DATE  = 
ORIGINATOR     = 

OBJECT_NAME    = COSMOS 1844
OBJECT_ID      = 1987-041A
CENTER_NAME    = EARTH
REF_FRAME      = TEME
TIME_SYSTEM    = UTC
MEAN_ELEMENT_THEORY = SGP/SGP4

EPOCH          = 2025-11-04T17:29:35.661408
MEAN_MOTION    = 14.14512551
ECCENTRICITY   = .00321969
INCLINATION    = 70.8975
RA_OF_ASC_NODE = 297.7421
ARG_OF_PERICENTER = 213.4733
MEAN_ANOMALY   = 146.4355

EPHEMERIS_TYPE = 0
CLASSIFICATION_TYPE = U
NORAD_CAT_ID   = 17973
ELEMENT_SET_NO = 999
REV_AT_EPOCH   = 98591
BSTAR          = .240951E-3
MEAN_MOTION_DOT = .416E-5
MEAN_MOTION_DDOT = 0

CCSDS_OMM_VERS = 2.0
CREATION_DATE  = 
ORIGINATOR     = 

OBJECT_NAME    = SL-14 R/B
OBJECT_ID      = 1987-055B
CENTER_NAME    = EARTH
REF_FRAME      = TEME
TIME_SYSTEM    = UTC
MEAN_ELEMENT_THEORY = SGP/SGP4

EPOCH          = 2025-11-04T20:46:39.501408
MEAN_MOTION    = 14.85457337
ECCENTRICITY   = .00220919
INCLINATION    = 82.4966
RA_OF_ASC_NODE = 106.6809
ARG_OF_PERICENTER = 67.8792
MEAN_ANOMALY   = 292.4767

EPHEMERIS_TYPE = 0
CLASSIFICATION_TYPE = U
NORAD_CAT_ID   = 18153
ELEMENT_SET_NO = 999
REV_AT_EPOCH   = 5140
BSTAR          = .66415105E-4
MEAN_MOTION_DOT = .599E-5
MEAN_MOTION_DDOT = 0

CCSDS_OMM_VERS = 2.0
CREATION_DATE  = 
ORIGINATOR     = 

OBJECT_NAME    = COSMOS 1867
OBJECT_ID      = 1987-060A
CENTER_NAME    = EARTH
REF_FRAME      = TEME
TIME_SYSTEM    = UTC
MEAN_ELEMENT_THEORY = SGP/SGP4

EPOCH          = 2025-11-04T22:43:34.326912
MEAN_MOTION    = 14.31476326
ECCENTRICITY   = .00137405
INCLINATION    = 65.0101
RA_OF_ASC_NODE = 296.0368
ARG_OF_PERICENTER = 267.3300
MEAN_ANOMALY   = 92.6211

EPHEMERIS_TYPE = 0
CLASSIFICATION_TYPE = U
NORAD_CAT_ID   = 18187
ELEMENT_SET_NO = 999
REV_AT_EPOCH   = 208
BSTAR          = .34231909E-4
MEAN_MOTION_DOT = -.9E-7
MEAN_MOTION_DDOT = 0

