COSMOS 1743             
1 16719U 86034A   25308.71474670  .00028528  00000+0  51553-3 0  9995
2 16719  82.5391 204.0020 0008480  42.0021 318.1879 15.49515973160846
SL-14 R/B               
1 16792U 86046B   25308.65551144  .00000578  00000+0  64128-4 0  9992
2 16792  82.4841 198.2755 0021657 282.5033  77.3760 14.85426638107842
SL-14 R/B               
1 16882U 86055B   25308.78338047  .00000699  00000+0  78004-4 0  9993
2 16882  82.5207 244.0329 0019858  29.7426 357.9827 14.85465011100823
AJISAI (EGS)            
1 16908U 86061A   25308.94141782 -.00000091  00000+0  44336-4 0  9993
2 16908  50.0067 116.9441 0011151 330.5697 201.8259 12.44514148452464
COSMOS 1812             
1 17295U 87003A   25308.52394404  .00058890  00000+0  53090-3 0  9990
2 17295  82.4894 333.1408 0003931 161.7339 198.4064 15.67937541124657
SL-14 R/B               
1 17567U 87024B   25308.73428949  .00000616  00000+0  67644-4 0  9994
2 17567  82.5305 210.1499 0017289 318.7349  41.2559 14.85965244 69570
COSMOS 1833             
1 17589U 87027A   25308.70289228 -.00000291  00000+0 -13018-3 0  9999
2 17589  70.9157 228.7345 0020807  25.5697 334.6448 14.13022967992651
SL-16 R/B               
1 17590U 87027B   25308.89814837  .00000282  00000+0  16378-3 0  9991
2 17590  71.0015 179.4564 0006862 299.3597  60.6841 14.17143941997702
SL-14 R/B               
1 17912U 87038B   25308.73242497  .00000678  00000+0  76180-4 0  9998
2 17912  82.5028  54.4898 0018487 214.0034 145.9999 14.85200370 60683
COSMOS 1844             
1 17973U 87041A   25308.72888497  .00000416  00000+0  24095-3 0  9991
2 17973  70.8975 297.7421 0032196 213.4733 146.4355 14.14512551985910
SL-14 R/B               
1 18153U 87055B   25308.86573497  .00000599  00000+0  66415-4 0  9998
2 18153  82.4966 106.6809 0022091  67.8792 292.4767 14.85457337 51402
COSMOS 1867             
1 18187U 87060A   25308.94692508 -.00000009  00000+0  34232-4 0  9994
2 18187  65.0101 296.0368 0013740 267.3300  92.6211 14.31476326  2088
